[{"OBJECT_NAME":"STARLINK-35975","OBJECT_ID":"2025-265K","EPOCH":"2026-03-09T22:47:00.148128","MEAN_MOTION":15.27600436,"ECCENTRICITY":5.741e-5,"INCLINATION":42.9929,"RA_OF_ASC_NODE":276.432,"ARG_OF_PERICENTER":45.6802,"MEAN_ANOMALY":314.4097,"EPHEMERIS_TYPE":0,"CLASSIFICATION_TYPE":"U","NORAD_CAT_ID":66525,"ELEMENT_SET_NO":999,"REV_AT_EPOCH":1715,"BSTAR":0.0013094902,"MEAN_MOTION_DOT":0.00035971,"MEAN_MOTION_DDOT":0},{"OBJECT_NAME":"TITAN 3C TRANSTAGE DEB","OBJECT_ID":"1965-082PT","EPOCH":"2026-03-09T13:23:41.116128","MEAN_MOTION":15.28908269,"ECCENTRICITY":0.00104371,"INCLINATION":32.0266,"RA_OF_ASC_NODE":255.1391,"ARG_OF_PERICENTER":172.8339,"MEAN_ANOMALY":187.2474,"EPHEMERIS_TYPE":0,"CLASSIFICATION_TYPE":"U","NORAD_CAT_ID":3462,"ELEMENT_SET_NO":999,"REV_AT_EPOCH":24824,"BSTAR":0.0004444037,"MEAN_MOTION_DOT":0.00012939,"MEAN_MOTION_DDOT":0}]
